KAITUO 1B               
1 40912U 15049P   18044.48600428  .00001203  00000-0  61542-4 0  9992
2 40912  97.4514  53.5850 0017354  82.0667  70.9464 15.18437846132893
TIANWANG 1C (TW-1C)     
1 40926U 15051B   18044.55967922  .00006827  00000-0  13671-3 0  9999
2 40926  97.2011  87.5451 0011126  20.6792 137.6134 15.47005023134189
TIANWANG 1B (TW-1B)     
1 40927U 15051C   18044.47494214  .00006346  00000-0  13245-3 0  9993
2 40927  97.2093  87.3587 0011431  31.0618  76.1495 15.45820882134093
TIANWANG 1A (TW-1A)     
1 40928U 15051D   18043.83818944  .00002596  00000-0  71528-4 0  9995
2 40928  97.2018  80.2412 0014026  54.8879  49.2457 15.37941335133664
LAPAN-A2 (IO-86)        
1 40931U 15052B   18043.03277793  .00000976  00000-0  47099-4 0  9999
2 40931   5.9986 322.4979 0013113  35.3051 324.8157 14.76566896128478
LQSAT                   
1 40958U 15057A   18044.53553630  .00000025  00000-0  11613-4 0  9994
2 40958  97.9530 120.3251 0018741  18.1466 342.0408 14.73015313126640
CHUBUSAT-2              
1 41338U 16012B   18044.33730469  .00000368  00000-0  22067-4 0  9999
2 41338  31.0046  20.4869 0013885 286.6335  73.2776 14.99917895109220
CHUBUSAT-3              
1 41339U 16012C   18044.30016820  .00000280  00000-0  15079-4 0  9993
2 41339  31.0106  19.4985 0013940 292.4356  67.4803 15.00109071109201
OUFTI-1                 
1 41458U 16025C   18044.39631528  .00000787  00000-0  45710-4 0  9993
2 41458  98.1529 100.5616 0170702 202.0313 157.3515 15.04235155 98820
E-ST@R-II               
1 41459U 16025D   18044.38240668  .00000467  00000-0  29206-4 0  9991
2 41459  98.1520 100.4351 0171392 202.8038 156.5511 15.03988422 98812
AAUSAT 4                
1 41460U 16025E   18044.33950372  .00001738  00000-0  94603-4 0  9993
2 41460  98.1495 100.7128 0163677 199.5930 159.8953 15.05277439 98851
NUSAT 1 (LO-87)         
1 41557U 16033B   18044.40932847  .00001356  00000-0  52362-4 0  9996
2 41557  97.4443 128.8333 0012662 230.9150 129.0964 15.27984760 95251
BEESAT-4                
1 41619U 16040W   18044.46276770  .00001344  00000-0  62366-4 0  9997
2 41619  97.4317 109.2476 0010346 308.9640  51.0674 15.21735680 79273
PRATHAM                 
1 41783U 16059A   18044.47461738  .00000062  00000-0  21412-4 0  9993
2 41783  98.1350 107.9310 0034775 123.0548 237.4002 14.62899887 73876
ALSAT 1N                
1 41789U 16059G   18044.46744466  .00000043  00000-0  17327-4 0  9999
2 41789  98.1353 108.8972 0029799 115.5596 244.8698 14.64125900 73916
NAYIF-1 (EO-88)         
1 42017U 17008BX  18044.21730472  .00001425  00000-0  61730-4 0  9996
2 42017  97.4645 109.9441 0008158  95.6681 264.5486 15.24025709 55185
LILACSAT-1              
1 42725U 98067ME  18044.47962049  .00014821  00000-0  16079-3 0  9990
2 42725  51.6364 266.3576 0005783 130.9272 229.2224 15.63748519 41129
MAX VALIER SAT          
1 42778U 17036P   18043.92030319  .00000786  00000-0  38480-4 0  9996
2 42778  97.4208 105.6065 0013904 140.0648 220.1613 15.21026960 35615
FOX-1B (AO-91)          
1 43017U 17073E   18044.38775345  .00000939  00000-0  79955-4 0  9992
2 43017  97.6998 340.7525 0259459 314.8620  43.1773 14.77898219 12823
FOX-1D (AO-92)          
1 43137U 18004AC  18043.68910497  .00000903  00000-0  42150-4 0  9999
2 43137  97.5510 105.9599 0009951 167.0525 193.0969 15.22418382  4765
